OBJECT_NAME,OBJECT_ID,EPOCH,MEAN_MOTION,ECCENTRICITY,INCLINATION,RA_OF_ASC_NODE,ARG_OF_PERICENTER,MEAN_ANOMALY,EPHEMERIS_TYPE,CLASSIFICATION_TYPE,NORAD_CAT_ID,ELEMENT_SET_NO,REV_AT_EPOCH,BSTAR,MEAN_MOTION_DOT,MEAN_MOTION_DDOT
COSMOS 2251 DEB,1993-036BDM,2024-10-07T22:51:09.514080,14.82281145,0.0073612,73.8963,169.0856,213.1647,146.4906,0,U,36551,999,60501,4.954E-03,4.17E-04,0
COSMOS 2251 DEB,1993-036BDT,2024-10-08T03:25:52.338432,14.60742350,0.0028883,73.9844,243.9955,135.4686,224.8808,0,U,36557,999,27569,6.5605E-03,3.2314E-04,0
COSMOS 2251 DEB,1993-036BDU,2024-10-08T15:01:35.578272,14.50407254,0.0012043,74.0448,246.1499,76.3098,283.9403,0,U,36558,999,79020,9.1296E-03,3.5864E-04,0
COSMOS 2251 DEB,1993-036BDV,2024-10-08T06:01:38.897760,13.87467328,0.0283591,74.1305,21.7663,163.5991,197.4553,0,U,36559,999,75104,9.4633E-02,1.5663E-03,0
COSMOS 2251 DEB,1993-036BEC,2024-10-07T07:59:37.355136,14.52010616,0.0016632,74.0252,274.2902,84.0655,276.2401,0,U,36614,999,59330,8.284E-03,3.3679E-04,0
COSMOS 2251 DEB,1993-036BEL,2024-10-09T05:39:09.302112,14.70259437,0.0073747,74.0160,264.1360,148.8096,211.7484,0,U,36622,999,77832,2.6984E-03,1.6988E-04,0
COSMOS 2251 DEB,1993-036BEP,2024-10-08T16:21:27.133920,15.17025983,0.0023268,73.8576,73.2807,156.5615,203.6646,0,U,36625,999,2754,1.1773E-02,2.4225E-03,0
COSMOS 2251 DEB,1993-036BEQ,2024-10-09T00:23:14.661888,15.35982574,0.0070823,74.0118,19.1162,157.0690,203.3706,0,U,36626,999,61744,2.6284E-03,1.0135E-03,0
COSMOS 2251 DEB,1993-036BEU,2024-10-03T17:36:27.134496,14.61528589,0.0026887,73.9738,293.7621,171.3494,188.8141,0,U,36630,999,52587,7.1706E-03,3.593E-04,0
COSMOS 2251 DEB,1993-036BEW,2024-10-08T15:45:58.232736,14.39696423,0.0035869,74.0029,10.9322,225.7308,134.0902,0,U,36632,999,59017,8.6713E-03,2.7436E-04,0
COSMOS 2251 DEB,1993-036BFE,2024-10-06T08:46:06.688416,14.92281402,0.0111576,74.0277,316.7151,152.6074,208.1054,0,U,37084,999,59797,1.4249E-03,1.6417E-04,0
COSMOS 2251 DEB,1993-036BFF,2024-10-03T01:58:00.543936,14.98030349,0.0059816,73.9746,48.7081,345.1135,14.8286,0,U,37085,999,60533,5.982E-03,7.4064E-04,0
COSMOS 2251 DEB,1993-036BFG,2024-10-08T06:19:55.568640,15.55000554,0.001156,73.9586,283.7138,217.6009,142.4399,0,U,37086,999,62645,2.962E-02,2.258217E-02,0
COSMOS 2251 DEB,1993-036BFK,2024-10-07T04:40:37.506720,14.40417290,0.0160177,74.0417,232.9163,80.4200,281.5012,0,U,37089,999,59866,1.2285E-02,4.568E-04,0
COSMOS 2251 DEB,1993-036BFP,2024-10-06T07:15:27.520704,15.03331420,0.0086682,74.0026,284.8622,279.9607,79.1806,0,U,37093,999,78924,7.5718E-03,1.13237E-03,0
COSMOS 2251 DEB,1993-036BFQ,2024-10-03T01:16:43.710816,14.33830107,0.0091735,74.1115,197.7884,278.2272,80.8484,0,U,37094,999,78251,5.7183E-03,1.6692E-04,0
COSMOS 2251 DEB,1993-036BFR,2024-10-09T13:46:50.546496,13.99845447,0.020344,73.8470,224.1880,359.5651,0.5271,0,U,37095,999,56621,7.3588E-03,1.2902E-04,0
COSMOS 2251 DEB,1993-036BFX,2024-10-09T03:00:49.053600,14.57187435,0.00499,74.0338,195.8775,25.3035,335.0557,0,U,37101,999,76565,6.4459E-03,2.9699E-04,0
COSMOS 2251 DEB,1993-036BGB,2024-09-25T16:36:32.680224,14.08689034,0.0319581,73.8795,37.3831,72.6752,290.9075,0,U,37105,999,77570,8.5875E-03,2.3752E-04,0
COSMOS 2251 DEB,1993-036BGE,2024-10-09T01:17:50.337312,14.36035706,0.0100194,74.0483,153.0239,334.9966,24.6350,0,U,37108,999,79326,4.6864E-03,1.4432E-04,0
COSMOS 2251 DEB,1993-036BGY,2024-10-09T05:57:22.532544,14.70513876,0.0126573,73.9513,114.4324,93.2724,268.2936,0,U,37126,999,1779,1.0748E-03,7.359E-05,0
COSMOS 2251 DEB,1993-036BHE,2024-10-08T22:27:08.618688,14.68647177,0.0048099,74.0088,354.0150,261.9106,97.6605,0,U,37132,999,56084,3.7835E-03,2.2437E-04,0
COSMOS 2251 DEB,1993-036BHH,2024-10-08T16:53:10.658112,14.22792766,0.0116455,74.1669,81.2652,77.7085,283.7072,0,U,37269,999,59568,1.7487E-02,4.228E-04,0
COSMOS 2251 DEB,1993-036BHJ,2024-10-06T01:59:42.134784,13.54152257,0.0412779,73.9433,319.4752,53.8046,310.0498,0,U,37270,999,71197,9.2906E-03,1.0864E-04,0
COSMOS 2251 DEB,1993-036BHR,2024-10-06T11:53:31.609536,14.86778374,0.0008646,74.0244,191.4739,296.1964,63.8326,0,U,37277,999,1885,1.0101E-02,9.1223E-04,0
COSMOS 2251 DEB,1993-036BHS,2024-10-08T16:16:18.079392,14.10298471,0.0313422,73.7885,42.6393,298.0384,122.7479,0,U,37278,999,57755,9.1409E-03,2.5719E-04,0
COSMOS 2251 DEB,1993-036BHU,2024-10-09T05:03:14.240736,14.15090146,0.0139677,74.0292,102.6167,331.3726,27.9794,0,U,37280,999,75501,4.8378E-03,1.0294E-04,0
COSMOS 2251 DEB,1993-036BHY,2024-10-06T13:04:49.429920,14.08553685,0.0171511,74.0205,199.5540,89.5108,81.8226,0,U,37284,999,53079,8.3087E-03,1.635E-04,0
COSMOS 2251 DEB,1993-036BJG,2024-10-08T17:51:56.962656,13.98614960,0.0221887,74.1317,72.2430,184.5787,175.3324,0,U,37292,999,53825,3.48E-02,6.2131E-04,0
COSMOS 2251 DEB,1993-036BJK,2024-10-09T06:34:21.113472,14.60790603,0.0050648,74.0121,27.0815,311.9304,47.7548,0,U,37295,999,76192,3.2481E-03,1.6157E-04,0
COSMOS 2251 DEB,1993-036BJV,2024-10-08T23:35:12.548832,14.33354334,0.00503,73.8727,6.2186,49.6380,310.9145,0,U,37305,999,60702,3.3027E-03,9.218E-05,0
COSMOS 2251 DEB,1993-036BKC,2024-10-09T06:28:58.227168,14.43556079,0.0016507,74.0317,284.4814,137.5834,222.6602,0,U,37312,999,79960,2.355E-03,7.972E-05,0
COSMOS 2251 DEB,1993-036BKG,2024-10-09T01:34:48.221760,14.70750708,0.0046364,74.0289,152.0722,338.0847,21.8340,0,U,37316,999,79774,6.9588E-03,4.3409E-04,0
COSMOS 2251 DEB,1993-036BKL,2024-10-03T11:09:08.599968,14.70133305,0.0052231,74.0544,348.2513,191.5408,168.4571,0,U,37320,999,59729,3.4503E-03,2.1231E-04,0
COSMOS 2251 DEB,1993-036BKS,2024-10-08T17:55:08.225472,14.57753949,0.0060808,74.0267,75.7340,311.7737,47.8239,0,U,37326,999,79208,4.7722E-03,2.2413E-04,0
COSMOS 2251 DEB,1993-036BKT,2024-09-12T09:51:10.602432,14.80906220,0.0006434,74.0143,156.8198,11.0367,349.0949,0,U,37327,999,1456,1.2344E-02,9.6811E-04,0
COSMOS 2251 DEB,1993-036BKW,2024-10-06T14:37:36.400512,14.57071489,0.0060838,74.0207,38.6949,352.4730,7.5514,0,U,37330,999,80180,1.4776E-03,6.8E-05,0
COSMOS 2251 DEB,1993-036BKX,2024-10-08T20:24:21.202560,14.32594868,0.0058289,74.0765,132.8148,255.8326,103.6345,0,U,37331,999,78597,2.3571E-03,6.501E-05,0
COSMOS 2251 DEB,1993-036BLC,2024-10-09T01:05:16.279584,14.32446878,0.0030624,74.0428,35.4952,221.1996,138.6844,0,U,37336,999,58966,3.9066E-04,1.037E-05,0
COSMOS 2251 DEB,1993-036BLD,2024-10-09T10:36:42.473664,15.35565661,0.0010082,73.9860,280.4438,219.8966,291.0492,0,U,37337,999,68917,2.0036E-02,7.4497E-03,0
COSMOS 2251 DEB,1993-036BLG,2024-10-09T13:18:18.075168,14.36065067,0.0018228,74.0282,346.3094,193.1265,166.9416,0,U,37340,999,77998,7.8567E-04,2.264E-05,0
COSMOS 2251 DEB,1993-036BLK,2024-09-17T17:07:32.876544,14.46500916,0.0097736,74.0164,66.6609,161.3516,199.1266,0,U,37343,999,2229,2.2784E-02,8.811E-04,0
COSMOS 2251 DEB,1993-036BLL,2024-10-09T12:13:32.303424,14.42247413,0.0094526,73.9759,223.4291,170.1946,190.1085,0,U,37483,999,59088,9.6876E-04,3.344E-05,0
COSMOS 2251 DEB,1993-036BLM,2024-10-07T09:22:47.153856,14.37797696,0.0040921,73.8243,296.0893,48.3339,15.3460,0,U,37484,999,59169,3.7759E-03,1.1477E-04,0
COSMOS 2251 DEB,1993-036BLP,2024-10-08T10:53:49.628832,14.05658457,0.0251064,73.6991,168.2275,99.9181,71.1489,0,U,37486,999,57304,6.4466E-02,1.42138E-03,0
COSMOS 2251 DEB,1993-036BLQ,2024-10-07T11:10:20.880480,14.57528940,0.0038741,73.9199,314.3090,254.0952,105.5941,0,U,37487,999,74909,1.1944E-02,5.5304E-04,0
COSMOS 2251 DEB,1993-036BLU,2024-10-08T06:00:24.822720,13.72912008,0.0323038,73.9052,274.6842,348.5489,10.8395,0,U,37491,999,49832,2.8367E-02,3.8187E-04,0
COSMOS 2251 DEB,1993-036BLZ,2024-10-06T20:04:41.044224,14.70521694,0.0103593,73.9579,100.3134,213.9325,145.5193,0,U,37496,999,59617,8.1794E-03,5.4325E-04,0
COSMOS 2251 DEB,1993-036BMB,2024-10-08T05:55:04.640736,14.49880383,0.0009376,74.0426,275.8248,74.6830,285.5366,0,U,37498,999,59103,1.9093E-02,7.4629E-04,0
COSMOS 2251 DEB,1993-036BMC,2024-10-09T00:16:43.561056,14.33665364,0.0028489,74.0394,28.5323,213.3975,146.5381,0,U,37499,999,78989,8.3983E-04,2.314E-05,0
COSMOS 2251 DEB,1993-036BMD,2024-10-08T21:03:42.467040,15.44968760,0.0098541,73.9523,109.5331,27.7705,332.8715,0,U,37500,999,83092,1.0233E-03,5.8418E-04,0
COSMOS 2251 DEB,1993-036BMU,2024-10-09T00:06:39.881664,14.68675245,0.0064967,74.1393,37.1719,32.2160,328.2953,0,U,37515,999,79341,1.2544E-02,7.6176E-04,0
COSMOS 2251 DEB,1993-036BMX,2024-09-17T08:22:34.959936,14.72908172,0.0019119,73.9950,128.4481,28.0379,332.1819,0,U,37518,999,59198,1.5901E-02,1.03773E-03,0
COSMOS 2251 DEB,1993-036BNH,2024-10-08T04:09:29.568960,14.48076174,0.001947,74.0394,209.9336,106.4214,253.9087,0,U,37528,999,79692,8.1319E-03,3.0434E-04,0
COSMOS 2251 DEB,1993-036BNJ,2024-10-09T13:58:03.756288,15.27023880,0.0012119,73.9947,38.0016,292.1931,67.7983,0,U,37529,999,80216,2.1591E-02,6.15627E-03,0
COSMOS 2251 DEB,1993-036BNK,2024-10-08T14:23:28.814784,14.33567842,0.0027454,74.0380,40.9005,212.2616,159.3575,0,U,37530,999,79064,1.9229E-03,5.323E-05,0
COSMOS 2251 DEB,1993-036BNM,2024-10-09T07:07:08.258304,14.41150410,0.0014342,74.0488,290.9453,145.7021,226.3734,0,U,37532,999,78725,1.1567E-03,3.709E-05,0
COSMOS 2251 DEB,1993-036BNN,2024-10-06T14:54:24.698880,14.08163223,0.0162848,74.0646,231.7147,31.4948,329.5813,0,U,37533,999,77263,9.1546E-03,1.7647E-04,0
COSMOS 2251 DEB,1993-036BNQ,2024-10-09T03:21:57.562848,14.53705666,0.0028542,74.0278,169.2096,51.8394,100.3080,0,U,37535,999,79070,3.8366E-03,1.617E-04,0
COSMOS 2251 DEB,1993-036BNS,2024-10-06T13:28:00.164928,14.36495956,0.0052661,74.0147,341.1133,226.2380,133.4410,0,U,37537,999,78825,1.0062E-03,2.975E-05,0
COSMOS 2251 DEB,1993-036BNT,2024-10-02T15:45:15.578784,14.91498199,0.002258,74.0101,359.7146,245.8591,114.0230,0,U,37538,999,76733,1.052E-02,1.07439E-03,0
COSMOS 2251 DEB,1993-036BPB,2024-10-09T11:33:10.090656,14.63145046,0.0007654,74.0279,214.2471,343.7551,16.3369,0,U,37546,999,59569,6.4009E-03,3.3067E-04,0
COSMOS 2251 DEB,1993-036BPC,2024-10-08T20:07:59.343456,15.06773749,0.0011945,74.0267,315.4971,254.3608,105.6265,0,U,37547,999,79784,1.1485E-02,1.75462E-03,0
